[{"OBJECT_NAME":"AEROCUBE 6A","OBJECT_ID":"2014-033AM","EPOCH":"2026-03-09T22:20:23.815680","MEAN_MOTION":14.96848607,"ECCENTRICITY":0.00387302,"INCLINATION":97.7128,"RA_OF_ASC_NODE":237.0691,"ARG_OF_PERICENTER":349.0559,"MEAN_ANOMALY":10.9816,"EPHEMERIS_TYPE":0,"CLASSIFICATION_TYPE":"U","NORAD_CAT_ID":40045,"ELEMENT_SET_NO":999,"REV_AT_EPOCH":63176,"BSTAR":0.00067890448,"MEAN_MOTION_DOT":7.845e-5,"MEAN_MOTION_DDOT":0},{"OBJECT_NAME":"STARLINK-5764","OBJECT_ID":"2023-020AK","EPOCH":"2026-03-08T05:18:37.359072","MEAN_MOTION":15.02595794,"ECCENTRICITY":0.00010779,"INCLINATION":43.0041,"RA_OF_ASC_NODE":0.0348,"ARG_OF_PERICENTER":296.8029,"MEAN_ANOMALY":63.2703,"EPHEMERIS_TYPE":0,"CLASSIFICATION_TYPE":"U","NORAD_CAT_ID":55602,"ELEMENT_SET_NO":999,"REV_AT_EPOCH":16884,"BSTAR":0.00046910374,"MEAN_MOTION_DOT":6.149e-5,"MEAN_MOTION_DDOT":0}]
